CCSDS_OMM_VERS = 2.0
CREATION_DATE  = 
ORIGINATOR     = 

OBJECT_NAME    = AIST-2T 2
OBJECT_ID      = 2025-313G
CENTER_NAME    = EARTH
REF_FRAME      = TEME
TIME_SYSTEM    = UTC
MEAN_ELEMENT_THEORY = SGP/SGP4

EPOCH          = 2026-01-15T03:23:25.925856
MEAN_MOTION    = 15.64886491
ECCENTRICITY   = .0010482
INCLINATION    = 97.1036
RA_OF_ASC_NODE = 92.4699
ARG_OF_PERICENTER = 175.8941
MEAN_ANOMALY   = 184.2407

EPHEMERIS_TYPE = 0
CLASSIFICATION_TYPE = U
NORAD_CAT_ID   = 67254
ELEMENT_SET_NO = 999
REV_AT_EPOCH   = 272
BSTAR          = .11308E-3
MEAN_MOTION_DOT = .10954E-3
MEAN_MOTION_DDOT = 0

CCSDS_OMM_VERS = 2.0
CREATION_DATE  = 
ORIGINATOR     = 

OBJECT_NAME    = 2025-313H
OBJECT_ID      = 2025-313H
CENTER_NAME    = EARTH
REF_FRAME      = TEME
TIME_SYSTEM    = UTC
MEAN_ELEMENT_THEORY = SGP/SGP4

EPOCH          = 2026-01-15T04:42:18.702720
MEAN_MOTION    = 15.02166977
ECCENTRICITY   = .0091199
INCLINATION    = 97.3099
RA_OF_ASC_NODE = 91.6689
ARG_OF_PERICENTER = 135.3903
MEAN_ANOMALY   = 225.4709

EPHEMERIS_TYPE = 0
CLASSIFICATION_TYPE = U
NORAD_CAT_ID   = 67255
ELEMENT_SET_NO = 999
REV_AT_EPOCH   = 265
BSTAR          = .94537E-4
MEAN_MOTION_DOT = .1299E-4
MEAN_MOTION_DDOT = 0

CCSDS_OMM_VERS = 2.0
CREATION_DATE  = 
ORIGINATOR     = 

OBJECT_NAME    = SITRO-AIS-57
OBJECT_ID      = 2025-313J
CENTER_NAME    = EARTH
REF_FRAME      = TEME
TIME_SYSTEM    = UTC
MEAN_ELEMENT_THEORY = SGP/SGP4

EPOCH          = 2026-01-15T04:35:47.518944
MEAN_MOTION    = 15.19877081
ECCENTRICITY   = .0016947
INCLINATION    = 97.4109
RA_OF_ASC_NODE = 92.3355
ARG_OF_PERICENTER = 174.7834
MEAN_ANOMALY   = 185.3581

EPHEMERIS_TYPE = 0
CLASSIFICATION_TYPE = U
NORAD_CAT_ID   = 67256
ELEMENT_SET_NO = 999
REV_AT_EPOCH   = 268
BSTAR          = .25763E-3
MEAN_MOTION_DOT = .5481E-4
MEAN_MOTION_DDOT = 0

CCSDS_OMM_VERS = 2.0
CREATION_DATE  = 
ORIGINATOR     = 

OBJECT_NAME    = SITRO-AIS-59
OBJECT_ID      = 2025-313K
CENTER_NAME    = EARTH
REF_FRAME      = TEME
TIME_SYSTEM    = UTC
MEAN_ELEMENT_THEORY = SGP/SGP4

EPOCH          = 2026-01-15T04:35:11.661216
MEAN_MOTION    = 15.19902698
ECCENTRICITY   = .0016668
INCLINATION    = 97.4116
RA_OF_ASC_NODE = 92.3374
ARG_OF_PERICENTER = 176.8395
MEAN_ANOMALY   = 183.2948

EPHEMERIS_TYPE = 0
CLASSIFICATION_TYPE = U
NORAD_CAT_ID   = 67257
ELEMENT_SET_NO = 999
REV_AT_EPOCH   = 268
BSTAR          = .24938E-3
MEAN_MOTION_DOT = .5307E-4
MEAN_MOTION_DDOT = 0

CCSDS_OMM_VERS = 2.0
CREATION_DATE  = 
ORIGINATOR     = 

OBJECT_NAME    = SITRO-AIS-58
OBJECT_ID      = 2025-313L
CENTER_NAME    = EARTH
REF_FRAME      = TEME
TIME_SYSTEM    = UTC
MEAN_ELEMENT_THEORY = SGP/SGP4

EPOCH          = 2026-01-15T04:34:40.983168
MEAN_MOTION    = 15.19945101
ECCENTRICITY   = .0016625
INCLINATION    = 97.4111
RA_OF_ASC_NODE = 92.3363
ARG_OF_PERICENTER = 176.1349
MEAN_ANOMALY   = 184.0017

EPHEMERIS_TYPE = 0
CLASSIFICATION_TYPE = U
NORAD_CAT_ID   = 67258
ELEMENT_SET_NO = 999
REV_AT_EPOCH   = 268
BSTAR          = .24594E-3
MEAN_MOTION_DOT = .5239E-4
MEAN_MOTION_DDOT = 0

CCSDS_OMM_VERS = 2.0
CREATION_DATE  = 
ORIGINATOR     = 

OBJECT_NAME    = 2025-313M
OBJECT_ID      = 2025-313M
CENTER_NAME    = EARTH
REF_FRAME      = TEME
TIME_SYSTEM    = UTC
MEAN_ELEMENT_THEORY = SGP/SGP4

EPOCH          = 2026-01-15T02:56:00.271104
MEAN_MOTION    = 15.20232346
ECCENTRICITY   = .0015843
INCLINATION    = 97.4154
RA_OF_ASC_NODE = 92.2965
ARG_OF_PERICENTER = 174.9175
MEAN_ANOMALY   = 185.2224

EPHEMERIS_TYPE = 0
CLASSIFICATION_TYPE = U
NORAD_CAT_ID   = 67259
ELEMENT_SET_NO = 999
REV_AT_EPOCH   = 267
BSTAR          = .31334E-3
MEAN_MOTION_DOT = .6749E-4
MEAN_MOTION_DDOT = 0

CCSDS_OMM_VERS = 2.0
CREATION_DATE  = 
ORIGINATOR     = 

OBJECT_NAME    = SITRO-AIS-60
OBJECT_ID      = 2025-313N
CENTER_NAME    = EARTH
REF_FRAME      = TEME
TIME_SYSTEM    = UTC
MEAN_ELEMENT_THEORY = SGP/SGP4

EPOCH          = 2026-01-15T04:32:34.191168
MEAN_MOTION    = 15.20032691
ECCENTRICITY   = .0016006
INCLINATION    = 97.4119
RA_OF_ASC_NODE = 92.3404
ARG_OF_PERICENTER = 176.3723
MEAN_ANOMALY   = 183.7631

EPHEMERIS_TYPE = 0
CLASSIFICATION_TYPE = U
NORAD_CAT_ID   = 67260
ELEMENT_SET_NO = 999
REV_AT_EPOCH   = 268
BSTAR          = .19764E-3
MEAN_MOTION_DOT = .4206E-4
MEAN_MOTION_DDOT = 0

CCSDS_OMM_VERS = 2.0
CREATION_DATE  = 
ORIGINATOR     = 

OBJECT_NAME    = 2025-313P
OBJECT_ID      = 2025-313P
CENTER_NAME    = EARTH
REF_FRAME      = TEME
TIME_SYSTEM    = UTC
MEAN_ELEMENT_THEORY = SGP/SGP4

EPOCH          = 2026-01-15T04:28:54.334272
MEAN_MOTION    = 15.20425684
ECCENTRICITY   = .0015632
INCLINATION    = 97.4154
RA_OF_ASC_NODE = 92.3632
ARG_OF_PERICENTER = 175.0253
MEAN_ANOMALY   = 185.1141

EPHEMERIS_TYPE = 0
CLASSIFICATION_TYPE = U
NORAD_CAT_ID   = 67261
ELEMENT_SET_NO = 999
REV_AT_EPOCH   = 268
BSTAR          = .42421E-3
MEAN_MOTION_DOT = .9215E-4
MEAN_MOTION_DDOT = 0

CCSDS_OMM_VERS = 2.0
CREATION_DATE  = 
ORIGINATOR     = 

OBJECT_NAME    = 2025-313Q
OBJECT_ID      = 2025-313Q
CENTER_NAME    = EARTH
REF_FRAME      = TEME
TIME_SYSTEM    = UTC
MEAN_ELEMENT_THEORY = SGP/SGP4

EPOCH          = 2026-01-15T04:30:37.405152
MEAN_MOTION    = 15.20216568
ECCENTRICITY   = .0015698
INCLINATION    = 97.4122
RA_OF_ASC_NODE = 92.3426
ARG_OF_PERICENTER = 176.9329
MEAN_ANOMALY   = 183.2005

EPHEMERIS_TYPE = 0
CLASSIFICATION_TYPE = U
NORAD_CAT_ID   = 67262
ELEMENT_SET_NO = 999
REV_AT_EPOCH   = 268
BSTAR          = .29215E-3
MEAN_MOTION_DOT = .6284E-4
MEAN_MOTION_DDOT = 0

CCSDS_OMM_VERS = 2.0
CREATION_DATE  = 
ORIGINATOR     = 

OBJECT_NAME    = DCS-1
OBJECT_ID      = 2025-313R
CENTER_NAME    = EARTH
REF_FRAME      = TEME
TIME_SYSTEM    = UTC
MEAN_ELEMENT_THEORY = SGP/SGP4

EPOCH          = 2026-01-15T04:31:00.791904
MEAN_MOTION    = 15.20164067
ECCENTRICITY   = .0015644
INCLINATION    = 97.4134
RA_OF_ASC_NODE = 92.3568
ARG_OF_PERICENTER = 175.8354
MEAN_ANOMALY   = 184.3014

EPHEMERIS_TYPE = 0
CLASSIFICATION_TYPE = U
NORAD_CAT_ID   = 67263
ELEMENT_SET_NO = 999
REV_AT_EPOCH   = 268
BSTAR          = .23878E-3
MEAN_MOTION_DOT = .5115E-4
MEAN_MOTION_DDOT = 0

CCSDS_OMM_VERS = 2.0
CREATION_DATE  = 
ORIGINATOR     = 

OBJECT_NAME    = 2025-313S
OBJECT_ID      = 2025-313S
CENTER_NAME    = EARTH
REF_FRAME      = TEME
TIME_SYSTEM    = UTC
MEAN_ELEMENT_THEORY = SGP/SGP4

EPOCH          = 2026-01-15T04:32:06.414432
MEAN_MOTION    = 15.20042642
ECCENTRICITY   = .0015612
INCLINATION    = 97.4203
RA_OF_ASC_NODE = 92.3543
ARG_OF_PERICENTER = 180.9628
MEAN_ANOMALY   = 179.1580

EPHEMERIS_TYPE = 0
CLASSIFICATION_TYPE = U
NORAD_CAT_ID   = 67264
ELEMENT_SET_NO = 999
REV_AT_EPOCH   = 268
BSTAR          = .17588E-3
MEAN_MOTION_DOT = .3735E-4
MEAN_MOTION_DDOT = 0

CCSDS_OMM_VERS = 2.0
CREATION_DATE  = 
ORIGINATOR     = 

OBJECT_NAME    = SITRO-TD-4
OBJECT_ID      = 2025-313T
CENTER_NAME    = EARTH
REF_FRAME      = TEME
TIME_SYSTEM    = UTC
MEAN_ELEMENT_THEORY = SGP/SGP4

EPOCH          = 2026-01-15T02:55:43.284000
MEAN_MOTION    = 15.20188652
ECCENTRICITY   = .0015566
INCLINATION    = 97.4114
RA_OF_ASC_NODE = 92.2875
ARG_OF_PERICENTER = 176.8994
MEAN_ANOMALY   = 183.2341

EPHEMERIS_TYPE = 0
CLASSIFICATION_TYPE = U
NORAD_CAT_ID   = 67265
ELEMENT_SET_NO = 999
REV_AT_EPOCH   = 267
BSTAR          = .24184E-3
MEAN_MOTION_DOT = .5185E-4
MEAN_MOTION_DDOT = 0

