AIST-2T 2               
1 67254U 25313G   26015.14127229  .00010954  00000+0  11308-3 0  9994
2 67254  97.1036  92.4699 0010482 175.8941 184.2407 15.64886491  2720
2025-313H               
1 67255U 25313H   26015.19604980  .00001299  00000+0  94537-4 0  9992
2 67255  97.3099  91.6689 0091199 135.3903 225.4709 15.02166977  2652
SITRO-AIS-57            
1 67256U 25313J   26015.19152221  .00005481  00000+0  25763-3 0  9990
2 67256  97.4109  92.3355 0016947 174.7834 185.3581 15.19877081  2680
SITRO-AIS-59            
1 67257U 25313K   26015.19110719  .00005307  00000+0  24938-3 0  9997
2 67257  97.4116  92.3374 0016668 176.8395 183.2948 15.19902698  2682
SITRO-AIS-58            
1 67258U 25313L   26015.19075212  .00005239  00000+0  24594-3 0  9998
2 67258  97.4111  92.3363 0016625 176.1349 184.0017 15.19945101  2683
2025-313M               
1 67259U 25313M   26015.12222536  .00006749  00000+0  31334-3 0  9992
2 67259  97.4154  92.2965 0015843 174.9175 185.2224 15.20232346  2676
SITRO-AIS-60            
1 67260U 25313N   26015.18928462  .00004206  00000+0  19764-3 0  9990
2 67260  97.4119  92.3404 0016006 176.3723 183.7631 15.20032691  2682
2025-313P               
1 67261U 25313P   26015.18673998  .00009215  00000+0  42421-3 0  9993
2 67261  97.4154  92.3632 0015632 175.0253 185.1141 15.20425684  2683
2025-313Q               
1 67262U 25313Q   26015.18793293  .00006284  00000+0  29215-3 0  9994
2 67262  97.4122  92.3426 0015698 176.9329 183.2005 15.20216568  2683
DCS-1                   
1 67263U 25313R   26015.18820361  .00005115  00000+0  23878-3 0  9993
2 67263  97.4134  92.3568 0015644 175.8354 184.3014 15.20164067  2689
2025-313S               
1 67264U 25313S   26015.18896313  .00003735  00000+0  17588-3 0  9991
2 67264  97.4203  92.3543 0015612 180.9628 179.1580 15.20042642  2680
SITRO-TD-4              
1 67265U 25313T   26015.12202875  .00005185  00000+0  24184-3 0  9991
2 67265  97.4114  92.2875 0015566 176.8994 183.2341 15.20188652  2679
